[{"OBJECT_NAME":"STARLINK-11517 [DTC]","OBJECT_ID":"2025-006F","EPOCH":"2025-10-27T04:17:58.409664","MEAN_MOTION":15.70911304,"ECCENTRICITY":0.00019275,"INCLINATION":43.0001,"RA_OF_ASC_NODE":224.7426,"ARG_OF_PERICENTER":273.7089,"MEAN_ANOMALY":86.3558,"EPHEMERIS_TYPE":0,"CLASSIFICATION_TYPE":"U","NORAD_CAT_ID":62559,"ELEMENT_SET_NO":999,"REV_AT_EPOCH":4560,"BSTAR":0.0019779385,"MEAN_MOTION_DOT":0.00262307,"MEAN_MOTION_DDOT":0},{"OBJECT_NAME":"STARLINK-11519 [DTC]","OBJECT_ID":"2025-006G","EPOCH":"2025-10-27T03:18:19.885824","MEAN_MOTION":15.70938249,"ECCENTRICITY":0.00025597,"INCLINATION":42.9998,"RA_OF_ASC_NODE":225.3043,"ARG_OF_PERICENTER":266.3582,"MEAN_ANOMALY":93.6993,"EPHEMERIS_TYPE":0,"CLASSIFICATION_TYPE":"U","NORAD_CAT_ID":62560,"ELEMENT_SET_NO":999,"REV_AT_EPOCH":4559,"BSTAR":0.001878293,"MEAN_MOTION_DOT":0.00248954,"MEAN_MOTION_DDOT":0},{"OBJECT_NAME":"STARLINK-11451 [DTC]","OBJECT_ID":"2025-006H","EPOCH":"2025-10-27T03:47:22.999776","MEAN_MOTION":15.70967117,"ECCENTRICITY":0.00035682,"INCLINATION":43.0017,"RA_OF_ASC_NODE":224.5732,"ARG_OF_PERICENTER":273.5229,"MEAN_ANOMALY":86.5231,"EPHEMERIS_TYPE":0,"CLASSIFICATION_TYPE":"U","NORAD_CAT_ID":62561,"ELEMENT_SET_NO":999,"REV_AT_EPOCH":4560,"BSTAR":0.0018867874,"MEAN_MOTION_DOT":0.00250455,"MEAN_MOTION_DDOT":0},{"OBJECT_NAME":"STARLINK-11530 [DTC]","OBJECT_ID":"2025-006J","EPOCH":"2025-10-27T01:45:26.004960","MEAN_MOTION":15.70927988,"ECCENTRICITY":8.726e-5,"INCLINATION":42.9991,"RA_OF_ASC_NODE":225.6793,"ARG_OF_PERICENTER":186.2491,"MEAN_ANOMALY":173.8366,"EPHEMERIS_TYPE":0,"CLASSIFICATION_TYPE":"U","NORAD_CAT_ID":62562,"ELEMENT_SET_NO":999,"REV_AT_EPOCH":4558,"BSTAR":0.0026344523,"MEAN_MOTION_DOT":0.00353694,"MEAN_MOTION_DDOT":0},{"OBJECT_NAME":"STARLINK-11536 [DTC]","OBJECT_ID":"2025-006K","EPOCH":"2025-10-27T03:55:01.980768","MEAN_MOTION":15.70904393,"ECCENTRICITY":0.00019626,"INCLINATION":42.9997,"RA_OF_ASC_NODE":224.614,"ARG_OF_PERICENTER":270.8343,"MEAN_ANOMALY":89.23,"EPHEMERIS_TYPE":0,"CLASSIFICATION_TYPE":"U","NORAD_CAT_ID":62563,"ELEMENT_SET_NO":999,"REV_AT_EPOCH":4560,"BSTAR":0.0015204401,"MEAN_MOTION_DOT":0.00199952,"MEAN_MOTION_DDOT":0},{"OBJECT_NAME":"STARLINK-11540 [DTC]","OBJECT_ID":"2025-006L","EPOCH":"2025-10-27T02:54:03.550752","MEAN_MOTION":15.70894389,"ECCENTRICITY":0.0001917,"INCLINATION":43.0003,"RA_OF_ASC_NODE":225.1668,"ARG_OF_PERICENTER":275.6201,"MEAN_ANOMALY":84.4448,"EPHEMERIS_TYPE":0,"CLASSIFICATION_TYPE":"U","NORAD_CAT_ID":62564,"ELEMENT_SET_NO":999,"REV_AT_EPOCH":4559,"BSTAR":0.0017934751,"MEAN_MOTION_DOT":0.002369,"MEAN_MOTION_DDOT":0},{"OBJECT_NAME":"STARLINK-11523 [DTC]","OBJECT_ID":"2025-006M","EPOCH":"2025-10-27T03:01:42.162816","MEAN_MOTION":15.71154278,"ECCENTRICITY":0.0003642,"INCLINATION":42.9988,"RA_OF_ASC_NODE":225.21,"ARG_OF_PERICENTER":270.8895,"MEAN_ANOMALY":89.1555,"EPHEMERIS_TYPE":0,"CLASSIFICATION_TYPE":"U","NORAD_CAT_ID":62565,"ELEMENT_SET_NO":999,"REV_AT_EPOCH":4559,"BSTAR":0.0028508692,"MEAN_MOTION_DOT":0.00388071,"MEAN_MOTION_DDOT":0},{"OBJECT_NAME":"STARLINK-11525 [DTC]","OBJECT_ID":"2025-006N","EPOCH":"2025-10-27T06:27:45.448128","MEAN_MOTION":15.70843871,"ECCENTRICITY":0.00018904,"INCLINATION":42.999,"RA_OF_ASC_NODE":224.5717,"ARG_OF_PERICENTER":261.4903,"MEAN_ANOMALY":98.5751,"EPHEMERIS_TYPE":0,"CLASSIFICATION_TYPE":"U","NORAD_CAT_ID":62566,"ELEMENT_SET_NO":999,"REV_AT_EPOCH":4561,"BSTAR":6.5539949e-5,"MEAN_MOTION_DOT":7.97e-5,"MEAN_MOTION_DDOT":0},{"OBJECT_NAME":"STARLINK-32752","OBJECT_ID":"2025-006P","EPOCH":"2025-10-27T02:50:07.635552","MEAN_MOTION":15.27593247,"ECCENTRICITY":9.325e-5,"INCLINATION":43.0018,"RA_OF_ASC_NODE":327.0044,"ARG_OF_PERICENTER":266.6375,"MEAN_ANOMALY":93.437,"EPHEMERIS_TYPE":0,"CLASSIFICATION_TYPE":"U","NORAD_CAT_ID":62567,"ELEMENT_SET_NO":999,"REV_AT_EPOCH":4443,"BSTAR":0.0010108511,"MEAN_MOTION_DOT":0.0002767,"MEAN_MOTION_DDOT":0},{"OBJECT_NAME":"STARLINK-32760","OBJECT_ID":"2025-006Q","EPOCH":"2025-10-27T01:23:22.157376","MEAN_MOTION":15.27596935,"ECCENTRICITY":3.299e-5,"INCLINATION":42.9997,"RA_OF_ASC_NODE":327.402,"ARG_OF_PERICENTER":78.4002,"MEAN_ANOMALY":281.6886,"EPHEMERIS_TYPE":0,"CLASSIFICATION_TYPE":"U","NORAD_CAT_ID":62568,"ELEMENT_SET_NO":999,"REV_AT_EPOCH":4442,"BSTAR":0.0012438579,"MEAN_MOTION_DOT":0.00034142,"MEAN_MOTION_DDOT":0},{"OBJECT_NAME":"STARLINK-32715","OBJECT_ID":"2025-006R","EPOCH":"2025-10-27T01:36:19.808352","MEAN_MOTION":15.27573818,"ECCENTRICITY":0.0001264,"INCLINATION":43.0016,"RA_OF_ASC_NODE":327.4791,"ARG_OF_PERICENTER":274.5492,"MEAN_ANOMALY":85.5215,"EPHEMERIS_TYPE":0,"CLASSIFICATION_TYPE":"U","NORAD_CAT_ID":62569,"ELEMENT_SET_NO":999,"REV_AT_EPOCH":4442,"BSTAR":0.00093002166,"MEAN_MOTION_DOT":0.00025413,"MEAN_MOTION_DDOT":0},{"OBJECT_NAME":"STARLINK-32764","OBJECT_ID":"2025-006S","EPOCH":"2025-10-27T01:47:25.262880","MEAN_MOTION":15.27598511,"ECCENTRICITY":8.061e-5,"INCLINATION":43.0028,"RA_OF_ASC_NODE":327.534,"ARG_OF_PERICENTER":231.0462,"MEAN_ANOMALY":129.0318,"EPHEMERIS_TYPE":0,"CLASSIFICATION_TYPE":"U","NORAD_CAT_ID":62570,"ELEMENT_SET_NO":999,"REV_AT_EPOCH":4442,"BSTAR":0.00098808873,"MEAN_MOTION_DOT":0.00027043,"MEAN_MOTION_DDOT":0},{"OBJECT_NAME":"STARLINK-32773","OBJECT_ID":"2025-006T","EPOCH":"2025-10-27T02:24:13.079232","MEAN_MOTION":15.27572082,"ECCENTRICITY":9.321e-5,"INCLINATION":43.0008,"RA_OF_ASC_NODE":326.8687,"ARG_OF_PERICENTER":265.9875,"MEAN_ANOMALY":94.087,"EPHEMERIS_TYPE":0,"CLASSIFICATION_TYPE":"U","NORAD_CAT_ID":62571,"ELEMENT_SET_NO":999,"REV_AT_EPOCH":4443,"BSTAR":0.0011276924,"MEAN_MOTION_DOT":0.00030892,"MEAN_MOTION_DDOT":0},{"OBJECT_NAME":"STARLINK-32750","OBJECT_ID":"2025-006U","EPOCH":"2025-10-27T01:58:18.885792","MEAN_MOTION":15.27600906,"ECCENTRICITY":2.628e-5,"INCLINATION":42.9977,"RA_OF_ASC_NODE":326.7247,"ARG_OF_PERICENTER":261.4246,"MEAN_ANOMALY":98.6576,"EPHEMERIS_TYPE":0,"CLASSIFICATION_TYPE":"U","NORAD_CAT_ID":62572,"ELEMENT_SET_NO":999,"REV_AT_EPOCH":4443,"BSTAR":0.0014408923,"MEAN_MOTION_DOT":0.00039627,"MEAN_MOTION_DDOT":0},{"OBJECT_NAME":"STARLINK-32771","OBJECT_ID":"2025-006V","EPOCH":"2025-10-27T02:13:07.102848","MEAN_MOTION":15.27602579,"ECCENTRICITY":0.00016755,"INCLINATION":43.001,"RA_OF_ASC_NODE":326.8058,"ARG_OF_PERICENTER":270.674,"MEAN_ANOMALY":89.392,"EPHEMERIS_TYPE":0,"CLASSIFICATION_TYPE":"U","NORAD_CAT_ID":62573,"ELEMENT_SET_NO":999,"REV_AT_EPOCH":4443,"BSTAR":0.00157818,"MEAN_MOTION_DOT":0.00043453,"MEAN_MOTION_DDOT":0},{"OBJECT_NAME":"STARLINK-32766","OBJECT_ID":"2025-006W","EPOCH":"2025-10-27T02:39:01.869120","MEAN_MOTION":15.27538695,"ECCENTRICITY":0.00013202,"INCLINATION":43.0024,"RA_OF_ASC_NODE":326.9399,"ARG_OF_PERICENTER":251.501,"MEAN_ANOMALY":108.5698,"EPHEMERIS_TYPE":0,"CLASSIFICATION_TYPE":"U","NORAD_CAT_ID":62574,"ELEMENT_SET_NO":999,"REV_AT_EPOCH":4443,"BSTAR":0.0016318134,"MEAN_MOTION_DOT":0.00044859,"MEAN_MOTION_DDOT":0},{"OBJECT_NAME":"STARLINK-11547 [DTC]","OBJECT_ID":"2025-008A","EPOCH":"2025-10-27T02:42:02.747520","MEAN_MOTION":15.7105703,"ECCENTRICITY":0.00056874,"INCLINATION":43.0003,"RA_OF_ASC_NODE":211.5386,"ARG_OF_PERICENTER":245.2543,"MEAN_ANOMALY":114.7733,"EPHEMERIS_TYPE":0,"CLASSIFICATION_TYPE":"U","NORAD_CAT_ID":62587,"ELEMENT_SET_NO":999,"REV_AT_EPOCH":4510,"BSTAR":0.0019737295,"MEAN_MOTION_DOT":0.00263531,"MEAN_MOTION_DDOT":0},{"OBJECT_NAME":"STARLINK-11185 [DTC]","OBJECT_ID":"2025-008B","EPOCH":"2025-10-27T03:27:45.013536","MEAN_MOTION":15.7093306,"ECCENTRICITY":0.00024598,"INCLINATION":43.0007,"RA_OF_ASC_NODE":210.8978,"ARG_OF_PERICENTER":281.9465,"MEAN_ANOMALY":78.1127,"EPHEMERIS_TYPE":0,"CLASSIFICATION_TYPE":"U","NORAD_CAT_ID":62588,"ELEMENT_SET_NO":999,"REV_AT_EPOCH":4511,"BSTAR":0.0018834742,"MEAN_MOTION_DOT":0.00249606,"MEAN_MOTION_DDOT":0},{"OBJECT_NAME":"STARLINK-11513 [DTC]","OBJECT_ID":"2025-008C","EPOCH":"2025-10-27T03:58:19.868736","MEAN_MOTION":15.7087499,"ECCENTRICITY":0.000155,"INCLINATION":43.0007,"RA_OF_ASC_NODE":211.0689,"ARG_OF_PERICENTER":268.3595,"MEAN_ANOMALY":91.7095,"EPHEMERIS_TYPE":0,"CLASSIFICATION_TYPE":"U","NORAD_CAT_ID":62589,"ELEMENT_SET_NO":999,"REV_AT_EPOCH":4511,"BSTAR":0.0011363894,"MEAN_MOTION_DOT":0.00148211,"MEAN_MOTION_DDOT":0},{"OBJECT_NAME":"STARLINK-11397 [DTC]","OBJECT_ID":"2025-008D","EPOCH":"2025-10-27T03:04:48.823104","MEAN_MOTION":15.70905874,"ECCENTRICITY":0.00023477,"INCLINATION":43.0003,"RA_OF_ASC_NODE":210.7689,"ARG_OF_PERICENTER":271.2336,"MEAN_ANOMALY":88.8263,"EPHEMERIS_TYPE":0,"CLASSIFICATION_TYPE":"U","NORAD_CAT_ID":62590,"ELEMENT_SET_NO":999,"REV_AT_EPOCH":4622,"BSTAR":0.00195506,"MEAN_MOTION_DOT":0.00259111,"MEAN_MOTION_DDOT":0},{"OBJECT_NAME":"STARLINK-11420 [DTC]","OBJECT_ID":"2025-008E","EPOCH":"2025-10-27T01:02:51.488736","MEAN_MOTION":15.70976604,"ECCENTRICITY":0.00013612,"INCLINATION":42.999,"RA_OF_ASC_NODE":211.8765,"ARG_OF_PERICENTER":236.6119,"MEAN_ANOMALY":123.4619,"EPHEMERIS_TYPE":0,"CLASSIFICATION_TYPE":"U","NORAD_CAT_ID":62591,"ELEMENT_SET_NO":999,"REV_AT_EPOCH":4627,"BSTAR":0.0019818693,"MEAN_MOTION_DOT":0.00263591,"MEAN_MOTION_DDOT":0},{"OBJECT_NAME":"STARLINK-11415 [DTC]","OBJECT_ID":"2025-008F","EPOCH":"2025-10-27T02:57:21.607200","MEAN_MOTION":15.70935185,"ECCENTRICITY":0.00017331,"INCLINATION":43.0001,"RA_OF_ASC_NODE":211.6218,"ARG_OF_PERICENTER":289.3848,"MEAN_ANOMALY":70.6833,"EPHEMERIS_TYPE":0,"CLASSIFICATION_TYPE":"U","NORAD_CAT_ID":62592,"ELEMENT_SET_NO":999,"REV_AT_EPOCH":4621,"BSTAR":0.0029579605,"MEAN_MOTION_DOT":0.00399515,"MEAN_MOTION_DDOT":0},{"OBJECT_NAME":"STARLINK-11413 [DTC]","OBJECT_ID":"2025-008G","EPOCH":"2025-10-27T08:00:03.000384","MEAN_MOTION":15.70880152,"ECCENTRICITY":0.00016869,"INCLINATION":43.0001,"RA_OF_ASC_NODE":210.2807,"ARG_OF_PERICENTER":272.6731,"MEAN_ANOMALY":227.602,"EPHEMERIS_TYPE":0,"CLASSIFICATION_TYPE":"U","NORAD_CAT_ID":62593,"ELEMENT_SET_NO":999,"REV_AT_EPOCH":600,"BSTAR":-0.00056416635,"MEAN_MOTION_DOT":-0.00072336,"MEAN_MOTION_DDOT":0}]
